{
    "links": {
        "self": "http://www.neowsapp.com/rest/v1/neo/3989234?api_key=iIulBulltgU6a56xZRHN4H3l9WmuAYTsLGpBGhQ2"
    },
    "id": "3989234",
    "neo_reference_id": "3989234",
    "name": "(2020 BC10)",
    "designation": "2020 BC10",
    "nasa_jpl_url": "http://ssd.jpl.nasa.gov/sbdb.cgi?sstr=3989234",
    "absolute_magnitude_h": 25.165,
    "estimated_diameter": {
        "kilometers": {
            "estimated_diameter_min": 0.0246351367,
            "estimated_diameter_max": 0.0550858403
        },
        "meters": {
            "estimated_diameter_min": 24.6351367054,
            "estimated_diameter_max": 55.0858403083
        },
        "miles": {
            "estimated_diameter_min": 0.0153075595,
            "estimated_diameter_max": 0.0342287437
        },
        "feet": {
            "estimated_diameter_min": 80.8239419086,
            "estimated_diameter_max": 180.7278283172
        }
    },
    "is_potentially_hazardous_asteroid": false,
    "close_approach_data": [
        {
            "close_approach_date": "1974-01-09",
            "close_approach_date_full": "1974-Jan-09 08:36",
            "epoch_date_close_approach": 126952560000,
            "relative_velocity": {
                "kilometers_per_second": "17.3106541532",
                "kilometers_per_hour": "62318.3549515708",
                "miles_per_hour": "38722.2022753246"
            },
            "miss_distance": {
                "astronomical": "0.3511750318",
                "lunar": "136.6070873702",
                "kilometers": "52535036.754462266",
                "miles": "32643758.1280446308"
            },
            "orbiting_body": "Earth"
        },
        {
            "close_approach_date": "2020-02-10",
            "close_approach_date_full": "2020-Feb-10 16:05",
            "epoch_date_close_approach": 1581350700000,
            "relative_velocity": {
                "kilometers_per_second": "7.5558306401",
                "kilometers_per_hour": "27200.9903041989",
                "miles_per_hour": "16901.6375587396"
            },
            "miss_distance": {
                "astronomical": "0.0389669917",
                "lunar": "15.1581597713",
                "kilometers": "5829378.958627679",
                "miles": "3622208.1208688102"
            },
            "orbiting_body": "Earth"
        }
    ],
    "orbital_data": {
        "orbit_id": "5",
        "orbit_determination_date": "2020-09-11 07:47:10",
        "first_observation_date": "2020-01-26",
        "last_observation_date": "2020-02-10",
        "data_arc_in_days": 15,
        "observations_used": 30,
        "orbit_uncertainty": "7",
        "minimum_orbit_intersection": ".0379185",
        "jupiter_tisserand_invariant": "4.021",
        "epoch_osculation": "2459000.5",
        "eccentricity": ".4282892700994074",
        "semi_major_axis": "1.743164754855353",
        "inclination": "8.094791210290664",
        "ascending_node_longitude": "129.4693437376952",
        "orbital_period": "840.6323159461729",
        "perihelion_distance": ".9965859943353413",
        "perihelion_argument": "30.28704683019524",
        "aphelion_distance": "2.489743515375364",
        "perihelion_time": "2458906.396699603868",
        "mean_anomaly": "40.29965003721868",
        "mean_motion": ".4282490610592365",
        "equinox": "J2000",
        "orbit_class": {
            "orbit_class_type": "APO",
            "orbit_class_description": "Near-Earth asteroid orbits which cross the Earth’s orbit similar to that of 1862 Apollo",
            "orbit_class_range": "a (semi-major axis) > 1.0 AU; q (perihelion) < 1.017 AU"
        }
    },
    "is_sentry_object": false
}